[{"OBJECT_NAME":"STARLINK-35152","OBJECT_ID":"2025-200L","EPOCH":"2026-03-09T18:26:25.621440","MEAN_MOTION":15.05644948,"ECCENTRICITY":6.85e-5,"INCLINATION":97.6016,"RA_OF_ASC_NODE":139.891,"ARG_OF_PERICENTER":109.8786,"MEAN_ANOMALY":250.2515,"EPHEMERIS_TYPE":0,"CLASSIFICATION_TYPE":"U","NORAD_CAT_ID":65530,"ELEMENT_SET_NO":999,"REV_AT_EPOCH":2914,"BSTAR":0.00012588731,"MEAN_MOTION_DOT":1.756e-5,"MEAN_MOTION_DDOT":0},{"OBJECT_NAME":"OBJECT R","OBJECT_ID":"2021-022R","EPOCH":"2026-03-09T22:54:37.456416","MEAN_MOTION":15.08912229,"ECCENTRICITY":0.00182027,"INCLINATION":97.3728,"RA_OF_ASC_NODE":308.5333,"ARG_OF_PERICENTER":149.1845,"MEAN_ANOMALY":211.0456,"EPHEMERIS_TYPE":0,"CLASSIFICATION_TYPE":"U","NORAD_CAT_ID":47947,"ELEMENT_SET_NO":999,"REV_AT_EPOCH":27304,"BSTAR":2.1057411e-5,"MEAN_MOTION_DOT":2.72e-6,"MEAN_MOTION_DDOT":0}]
